ONEWEB-0382             
1 49308U 21090AF  26076.10118537  .00000118  00000+0  25759-3 0  9993
2 49308  87.9161 292.8228 0001356  88.1583 271.9705 13.20770182217663
ONEWEB-0383             
1 49309U 21090AG  26076.15734192  .00000211  00000+0  53570-3 0  9996
2 49309  87.8973 308.0594 0001475  87.1972 272.9327 13.14503182215502
ONEWEB-0384             
1 49310U 21090AH  26076.09232214  .00000141  00000+0  31426-3 0  9997
2 49310  87.9162 292.8675 0001162  95.3247 264.8019 13.20807861217670
ONEWEB-0385             
1 49311U 21090AJ  26076.09330768  .00000192  00000+0  43938-3 0  9998
2 49311  87.9160 292.8288 0001471  86.3706 273.7595 13.20771649217641
ONEWEB-0386             
1 49312U 21090AK  26076.11066249  .00000058  00000+0  11012-3 0  9991
2 49312  87.9163 292.8104 0001414  90.8654 269.2641 13.20770896217668
ONEWEB-0387             
1 49313U 21090AL  26076.09487381  .00000104  00000+0  22286-3 0  9990
2 49313  87.9153 292.8501 0001513  76.0002 284.1300 13.20770769217669
ONEWEB-0388             
1 49314U 21090AM  26076.13879464  .00000042  00000+0  72910-4 0  9994
2 49314  87.9218 323.3157 0001579  81.2789 278.8522 13.19724809214273
ONEWEB-0389             
1 50469U 21132A   26076.08814978 -.00000031  00000+0 -11395-3 0  9996
2 50469  87.9162  24.1571 0001578  70.1741 289.9561 13.17650786205955
ONEWEB-0390             
1 50470U 21132B   26076.08983132  .00000014  00000+0  19634-5 0  9992
2 50470  87.9164  24.1571 0002040  75.3277 284.8081 13.17647878205954
ONEWEB-0391             
1 50471U 21132C   26076.09152464  .00000081  00000+0  17583-3 0  9993
2 50471  87.9159  24.1655 0001757  52.7787 307.3505 13.17651121205959
ONEWEB-0392             
1 50472U 21132D   26075.89409341 -.00000077  00000+0 -23173-3 0  9999
2 50472  87.9171  24.1661 0001670  69.5477 290.5834 13.17649500205964
ONEWEB-0393             
1 50473U 21132E   26076.09503351  .00000074  00000+0  15861-3 0  9999
2 50473  87.9171  24.1494 0001773  74.8990 285.2338 13.17649220205983
ONEWEB-0394             
1 50474U 21132F   26076.21141302  .00000053  00000+0  10204-3 0  9991
2 50474  87.9253 353.7113 0001634  76.5103 283.6211 13.18686870209478
ONEWEB-0395             
1 50475U 21132G   26075.92425325 -.00000561  00000+0 -16184-2 0  9997
2 50475  87.8870  39.4135 0001891  75.2211 284.9127 13.11416587203626
ONEWEB-0396             
1 50476U 21132H   26076.20481608 -.00000045  00000+0 -14561-3 0  9991
2 50476  87.9255 353.7245 0001760  77.1214 283.0114 13.18687123209511
ONEWEB-0397             
1 50477U 21132J   26076.14378496  .00000021  00000+0  20248-4 0  9997
2 50477  87.9253 353.7367 0001580  80.1874 279.9436 13.18687206209480
ONEWEB-0398             
1 50478U 21132K   26076.12093742  .00000472  00000+0  12946-2 0  9998
2 50478  87.8882  39.3556 0002203  75.8147 284.3226 13.11415371203545
