[{"OBJECT_NAME":"ONEWEB-0382","OBJECT_ID":"2021-090AF","EPOCH":"2026-03-17T02:25:42.415968","MEAN_MOTION":13.20770182,"ECCENTRICITY":0.00013561,"INCLINATION":87.9161,"RA_OF_ASC_NODE":292.8228,"ARG_OF_PERICENTER":88.1583,"MEAN_ANOMALY":271.9705,"EPHEMERIS_TYPE":0,"CLASSIFICATION_TYPE":"U","NORAD_CAT_ID":49308,"ELEMENT_SET_NO":999,"REV_AT_EPOCH":21766,"BSTAR":0.00025759453,"MEAN_MOTION_DOT":1.18e-6,"MEAN_MOTION_DDOT":0},{"OBJECT_NAME":"ONEWEB-0383","OBJECT_ID":"2021-090AG","EPOCH":"2026-03-17T03:46:34.341888","MEAN_MOTION":13.14503182,"ECCENTRICITY":0.00014751,"INCLINATION":87.8973,"RA_OF_ASC_NODE":308.0594,"ARG_OF_PERICENTER":87.1972,"MEAN_ANOMALY":272.9327,"EPHEMERIS_TYPE":0,"CLASSIFICATION_TYPE":"U","NORAD_CAT_ID":49309,"ELEMENT_SET_NO":999,"REV_AT_EPOCH":21550,"BSTAR":0.00053570095,"MEAN_MOTION_DOT":2.11e-6,"MEAN_MOTION_DDOT":0},{"OBJECT_NAME":"ONEWEB-0384","OBJECT_ID":"2021-090AH","EPOCH":"2026-03-17T02:12:56.632896","MEAN_MOTION":13.20807861,"ECCENTRICITY":0.00011627,"INCLINATION":87.9162,"RA_OF_ASC_NODE":292.8675,"ARG_OF_PERICENTER":95.3247,"MEAN_ANOMALY":264.8019,"EPHEMERIS_TYPE":0,"CLASSIFICATION_TYPE":"U","NORAD_CAT_ID":49310,"ELEMENT_SET_NO":999,"REV_AT_EPOCH":21767,"BSTAR":0.00031425677,"MEAN_MOTION_DOT":1.41e-6,"MEAN_MOTION_DDOT":0},{"OBJECT_NAME":"ONEWEB-0385","OBJECT_ID":"2021-090AJ","EPOCH":"2026-03-17T02:14:21.783552","MEAN_MOTION":13.20771649,"ECCENTRICITY":0.00014716,"INCLINATION":87.916,"RA_OF_ASC_NODE":292.8288,"ARG_OF_PERICENTER":86.3706,"MEAN_ANOMALY":273.7595,"EPHEMERIS_TYPE":0,"CLASSIFICATION_TYPE":"U","NORAD_CAT_ID":49311,"ELEMENT_SET_NO":999,"REV_AT_EPOCH":21764,"BSTAR":0.00043938427,"MEAN_MOTION_DOT":1.92e-6,"MEAN_MOTION_DDOT":0},{"OBJECT_NAME":"ONEWEB-0386","OBJECT_ID":"2021-090AK","EPOCH":"2026-03-17T02:39:21.239136","MEAN_MOTION":13.20770896,"ECCENTRICITY":0.00014142,"INCLINATION":87.9163,"RA_OF_ASC_NODE":292.8104,"ARG_OF_PERICENTER":90.8654,"MEAN_ANOMALY":269.2641,"EPHEMERIS_TYPE":0,"CLASSIFICATION_TYPE":"U","NORAD_CAT_ID":49312,"ELEMENT_SET_NO":999,"REV_AT_EPOCH":21766,"BSTAR":0.00011012008,"MEAN_MOTION_DOT":5.8e-7,"MEAN_MOTION_DDOT":0},{"OBJECT_NAME":"ONEWEB-0387","OBJECT_ID":"2021-090AL","EPOCH":"2026-03-17T02:16:37.097184","MEAN_MOTION":13.20770769,"ECCENTRICITY":0.00015137,"INCLINATION":87.9153,"RA_OF_ASC_NODE":292.8501,"ARG_OF_PERICENTER":76.0002,"MEAN_ANOMALY":284.13,"EPHEMERIS_TYPE":0,"CLASSIFICATION_TYPE":"U","NORAD_CAT_ID":49313,"ELEMENT_SET_NO":999,"REV_AT_EPOCH":21766,"BSTAR":0.00022285974,"MEAN_MOTION_DOT":1.04e-6,"MEAN_MOTION_DDOT":0},{"OBJECT_NAME":"ONEWEB-0388","OBJECT_ID":"2021-090AM","EPOCH":"2026-03-17T03:19:51.856896","MEAN_MOTION":13.19724809,"ECCENTRICITY":0.00015799,"INCLINATION":87.9218,"RA_OF_ASC_NODE":323.3157,"ARG_OF_PERICENTER":81.2789,"MEAN_ANOMALY":278.8522,"EPHEMERIS_TYPE":0,"CLASSIFICATION_TYPE":"U","NORAD_CAT_ID":49314,"ELEMENT_SET_NO":999,"REV_AT_EPOCH":21427,"BSTAR":7.2909665e-5,"MEAN_MOTION_DOT":4.2e-7,"MEAN_MOTION_DDOT":0},{"OBJECT_NAME":"ONEWEB-0389","OBJECT_ID":"2021-132A","EPOCH":"2026-03-17T02:06:56.140992","MEAN_MOTION":13.17650786,"ECCENTRICITY":0.00015784,"INCLINATION":87.9162,"RA_OF_ASC_NODE":24.1571,"ARG_OF_PERICENTER":70.1741,"MEAN_ANOMALY":289.9561,"EPHEMERIS_TYPE":0,"CLASSIFICATION_TYPE":"U","NORAD_CAT_ID":50469,"ELEMENT_SET_NO":999,"REV_AT_EPOCH":20595,"BSTAR":-0.00011394562,"MEAN_MOTION_DOT":-3.1e-7,"MEAN_MOTION_DDOT":0},{"OBJECT_NAME":"ONEWEB-0390","OBJECT_ID":"2021-132B","EPOCH":"2026-03-17T02:09:21.426048","MEAN_MOTION":13.17647878,"ECCENTRICITY":0.00020405,"INCLINATION":87.9164,"RA_OF_ASC_NODE":24.1571,"ARG_OF_PERICENTER":75.3277,"MEAN_ANOMALY":284.8081,"EPHEMERIS_TYPE":0,"CLASSIFICATION_TYPE":"U","NORAD_CAT_ID":50470,"ELEMENT_SET_NO":999,"REV_AT_EPOCH":20595,"BSTAR":1.963353e-6,"MEAN_MOTION_DOT":1.4e-7,"MEAN_MOTION_DDOT":0},{"OBJECT_NAME":"ONEWEB-0391","OBJECT_ID":"2021-132C","EPOCH":"2026-03-17T02:11:47.728896","MEAN_MOTION":13.17651121,"ECCENTRICITY":0.00017575,"INCLINATION":87.9159,"RA_OF_ASC_NODE":24.1655,"ARG_OF_PERICENTER":52.7787,"MEAN_ANOMALY":307.3505,"EPHEMERIS_TYPE":0,"CLASSIFICATION_TYPE":"U","NORAD_CAT_ID":50471,"ELEMENT_SET_NO":999,"REV_AT_EPOCH":20595,"BSTAR":0.00017583412,"MEAN_MOTION_DOT":8.1e-7,"MEAN_MOTION_DDOT":0},{"OBJECT_NAME":"ONEWEB-0392","OBJECT_ID":"2021-132D","EPOCH":"2026-03-16T21:27:29.670624","MEAN_MOTION":13.176495,"ECCENTRICITY":0.000167,"INCLINATION":87.9171,"RA_OF_ASC_NODE":24.1661,"ARG_OF_PERICENTER":69.5477,"MEAN_ANOMALY":290.5834,"EPHEMERIS_TYPE":0,"CLASSIFICATION_TYPE":"U","NORAD_CAT_ID":50472,"ELEMENT_SET_NO":999,"REV_AT_EPOCH":20596,"BSTAR":-0.00023173455,"MEAN_MOTION_DOT":-7.7e-7,"MEAN_MOTION_DDOT":0},{"OBJECT_NAME":"ONEWEB-0393","OBJECT_ID":"2021-132E","EPOCH":"2026-03-17T02:16:50.895264","MEAN_MOTION":13.1764922,"ECCENTRICITY":0.00017733,"INCLINATION":87.9171,"RA_OF_ASC_NODE":24.1494,"ARG_OF_PERICENTER":74.899,"MEAN_ANOMALY":285.2338,"EPHEMERIS_TYPE":0,"CLASSIFICATION_TYPE":"U","NORAD_CAT_ID":50473,"ELEMENT_SET_NO":999,"REV_AT_EPOCH":20598,"BSTAR":0.00015860965,"MEAN_MOTION_DOT":7.4e-7,"MEAN_MOTION_DDOT":0},{"OBJECT_NAME":"ONEWEB-0394","OBJECT_ID":"2021-132F","EPOCH":"2026-03-17T05:04:26.084928","MEAN_MOTION":13.1868687,"ECCENTRICITY":0.00016345,"INCLINATION":87.9253,"RA_OF_ASC_NODE":353.7113,"ARG_OF_PERICENTER":76.5103,"MEAN_ANOMALY":283.6211,"EPHEMERIS_TYPE":0,"CLASSIFICATION_TYPE":"U","NORAD_CAT_ID":50474,"ELEMENT_SET_NO":999,"REV_AT_EPOCH":20947,"BSTAR":0.00010203665,"MEAN_MOTION_DOT":5.3e-7,"MEAN_MOTION_DDOT":0},{"OBJECT_NAME":"ONEWEB-0395","OBJECT_ID":"2021-132G","EPOCH":"2026-03-16T22:10:55.480800","MEAN_MOTION":13.11416587,"ECCENTRICITY":0.00018913,"INCLINATION":87.887,"RA_OF_ASC_NODE":39.4135,"ARG_OF_PERICENTER":75.2211,"MEAN_ANOMALY":284.9127,"EPHEMERIS_TYPE":0,"CLASSIFICATION_TYPE":"U","NORAD_CAT_ID":50475,"ELEMENT_SET_NO":999,"REV_AT_EPOCH":20362,"BSTAR":-0.0016183537,"MEAN_MOTION_DOT":-5.61e-6,"MEAN_MOTION_DDOT":0},{"OBJECT_NAME":"ONEWEB-0396","OBJECT_ID":"2021-132H","EPOCH":"2026-03-17T04:54:56.109312","MEAN_MOTION":13.18687123,"ECCENTRICITY":0.00017603,"INCLINATION":87.9255,"RA_OF_ASC_NODE":353.7245,"ARG_OF_PERICENTER":77.1214,"MEAN_ANOMALY":283.0114,"EPHEMERIS_TYPE":0,"CLASSIFICATION_TYPE":"U","NORAD_CAT_ID":50476,"ELEMENT_SET_NO":999,"REV_AT_EPOCH":20951,"BSTAR":-0.00014560989,"MEAN_MOTION_DOT":-4.5e-7,"MEAN_MOTION_DDOT":0},{"OBJECT_NAME":"ONEWEB-0397","OBJECT_ID":"2021-132J","EPOCH":"2026-03-17T03:27:03.020544","MEAN_MOTION":13.18687206,"ECCENTRICITY":0.00015803,"INCLINATION":87.9253,"RA_OF_ASC_NODE":353.7367,"ARG_OF_PERICENTER":80.1874,"MEAN_ANOMALY":279.9436,"EPHEMERIS_TYPE":0,"CLASSIFICATION_TYPE":"U","NORAD_CAT_ID":50477,"ELEMENT_SET_NO":999,"REV_AT_EPOCH":20948,"BSTAR":2.0248025e-5,"MEAN_MOTION_DOT":2.1e-7,"MEAN_MOTION_DDOT":0},{"OBJECT_NAME":"ONEWEB-0398","OBJECT_ID":"2021-132K","EPOCH":"2026-03-17T02:54:08.993088","MEAN_MOTION":13.11415371,"ECCENTRICITY":0.00022032,"INCLINATION":87.8882,"RA_OF_ASC_NODE":39.3556,"ARG_OF_PERICENTER":75.8147,"MEAN_ANOMALY":284.3226,"EPHEMERIS_TYPE":0,"CLASSIFICATION_TYPE":"U","NORAD_CAT_ID":50478,"ELEMENT_SET_NO":999,"REV_AT_EPOCH":20354,"BSTAR":0.001294622,"MEAN_MOTION_DOT":4.72e-6,"MEAN_MOTION_DDOT":0}]
